{
  "type": "FeatureCollection",
  "features": [
    {
      "type": "Feature",
      "properties": {
        "norad_id": 44231,
        "name": "BEIDOU-2 G8 (C01)",
        "group": "gnss",
        "lat": -1.5303430232718844,
        "lon": -41.060125915602065,
        "alt_km": 35751.620067153766,
        "timestamp": "2025-12-20T05:41:50.273582+00:00",
        "meta_object_name": "BEIDOU-2 G8 (C01)",
        "meta_object_id": "2019-027A",
        "meta_epoch": "2025-12-19T12:14:23.449632",
        "meta_mean_motion": 1.00276563,
        "meta_eccentricity": 0.0008196,
        "meta_inclination": 1.6785,
        "meta_ra_of_asc_node": 74.7229,
        "meta_arg_of_pericenter": 258.5641,
        "meta_mean_anomaly": 83.1013,
        "meta_ephemeris_type": 0,
        "meta_classification_type": "U",
        "meta_norad_cat_id": 44231,
        "meta_element_set_no": 999,
        "meta_rev_at_epoch": 2427,
        "meta_bstar": 0,
        "meta_mean_motion_dot": -2.24e-06,
        "meta_mean_motion_ddot": 0,
        "tle_line1": "1 44231U 19027A   25353.50999363 -.00000224  00000+0  00000+0 0  9992",
        "tle_line2": "2 44231   1.6785  74.7229 0008196 258.5641  83.1013  1.00276563 24270"
      },
      "geometry": {
        "type": "Point",
        "coordinates": [
          -41.060125915602065,
          -1.5303430232718844
        ]
      }
    },
    {
      "type": "Feature",
      "properties": {
        "norad_id": 44299,
        "name": "COSMOS 2534 (758)",
        "group": "gnss",
        "lat": 13.179689343828214,
        "lon": -154.8956376092731,
        "alt_km": 19128.818376270763,
        "timestamp": "2025-12-20T05:41:50.273603+00:00",
        "meta_object_name": "COSMOS 2534 (758)",
        "meta_object_id": "2019-030A",
        "meta_epoch": "2025-12-18T18:30:09.690336",
        "meta_mean_motion": 2.13102412,
        "meta_eccentricity": 0.0008748,
        "meta_inclination": 64.3658,
        "meta_ra_of_asc_node": 198.6898,
        "meta_arg_of_pericenter": 284.2192,
        "meta_mean_anomaly": 45.4012,
        "meta_ephemeris_type": 0,
        "meta_classification_type": "U",
        "meta_norad_cat_id": 44299,
        "meta_element_set_no": 999,
        "meta_rev_at_epoch": 5107,
        "meta_bstar": 0,
        "meta_mean_motion_dot": 1.08e-06,
        "meta_mean_motion_ddot": 0,
        "tle_line1": "1 44299U 19030A   25352.77094549  .00000108  00000+0  00000+0 0  9990",
        "tle_line2": "2 44299  64.3658 198.6898 0008748 284.2192  45.4012  2.13102412 51071"
      },
      "geometry": {
        "type": "Point",
        "coordinates": [
          -154.8956376092731,
          13.179689343828214
        ]
      }
    },
    {
      "type": "Feature",
      "properties": {
        "norad_id": 44337,
        "name": "BEIDOU-3 IGSO-2 (C39)",
        "group": "gnss",
        "lat": 36.7669623466213,
        "lon": -50.907743314382394,
        "alt_km": 35725.6950014055,
        "timestamp": "2025-12-20T05:41:50.273623+00:00",
        "meta_object_name": "BEIDOU-3 IGSO-2 (C39)",
        "meta_object_id": "2019-035A",
        "meta_epoch": "2025-12-19T20:41:01.781088",
        "meta_mean_motion": 1.00269267,
        "meta_eccentricity": 0.0037549,
        "meta_inclination": 55.228,
        "meta_ra_of_asc_node": 160.4388,
        "meta_arg_of_pericenter": 202.2301,
        "meta_mean_anomaly": 155.7105,
        "meta_ephemeris_type": 0,
        "meta_classification_type": "U",
        "meta_norad_cat_id": 44337,
        "meta_element_set_no": 999,
        "meta_rev_at_epoch": 2386,
        "meta_bstar": 0,
        "meta_mean_motion_dot": -6.2e-07,
        "meta_mean_motion_ddot": 0,
        "tle_line1": "1 44337U 19035A   25353.86182617 -.00000062  00000+0  00000+0 0  9993",
        "tle_line2": "2 44337  55.2280 160.4388 0037549 202.2301 155.7105  1.00269267 23869"
      },
      "geometry": {
        "type": "Point",
        "coordinates": [
          -50.907743314382394,
          36.7669623466213
        ]
      }
    },
    {
      "type": "Feature",
      "properties": {
        "norad_id": 44506,
        "name": "GPS BIII-2  (PRN 18)",
        "group": "gnss",
        "lat": 41.773496059229664,
        "lon": 15.777397360096913,
        "alt_km": 20301.595429358327,
        "timestamp": "2025-12-20T05:41:50.273641+00:00",
        "meta_object_name": "GPS BIII-2  (PRN 18)",
        "meta_object_id": "2019-056A",
        "meta_epoch": "2025-12-19T09:43:49.309248",
        "meta_mean_motion": 2.00566645,
        "meta_eccentricity": 0.0057727,
        "meta_inclination": 55.7191,
        "meta_ra_of_asc_node": 338.2882,
        "meta_arg_of_pericenter": 198.5275,
        "meta_mean_anomaly": 334.872,
        "meta_ephemeris_type": 0,
        "meta_classification_type": "U",
        "meta_norad_cat_id": 44506,
        "meta_element_set_no": 999,
        "meta_rev_at_epoch": 4646,
        "meta_bstar": 0,
        "meta_mean_motion_dot": -8.1e-07,
        "meta_mean_motion_ddot": 0,
        "tle_line1": "1 44506U 19056A   25353.40543182 -.00000081  00000+0  00000+0 0  9993",
        "tle_line2": "2 44506  55.7191 338.2882 0057727 198.5275 334.8720  2.00566645 46469"
      },
      "geometry": {
        "type": "Point",
        "coordinates": [
          15.777397360096913,
          41.773496059229664
        ]
      }
    },
    {
      "type": "Feature",
      "properties": {
        "norad_id": 44542,
        "name": "BEIDOU-3 M24 (C46)",
        "group": "gnss",
        "lat": -36.20602809724855,
        "lon": 40.42101819004396,
        "alt_km": 21557.5945017225,
        "timestamp": "2025-12-20T05:41:50.273658+00:00",
        "meta_object_name": "BEIDOU-3 M24 (C46)",
        "meta_object_id": "2019-061A",
        "meta_epoch": "2025-12-19T08:42:00.476928",
        "meta_mean_motion": 1.86229413,
        "meta_eccentricity": 0.00096044,
        "meta_inclination": 54.4002,
        "meta_ra_of_asc_node": 188.7925,
        "meta_arg_of_pericenter": 25.2605,
        "meta_mean_anomaly": 334.8488,
        "meta_ephemeris_type": 0,
        "meta_classification_type": "U",
        "meta_norad_cat_id": 44542,
        "meta_element_set_no": 999,
        "meta_rev_at_epoch": 4244,
        "meta_bstar": 0,
        "meta_mean_motion_dot": 1.03e-06,
        "meta_mean_motion_ddot": 0,
        "tle_line1": "1 44542U 19061A   25353.36250552  .00000103  00000+0  00000+0 0  9994",
        "tle_line2": "2 44542  54.4002 188.7925 0009604  25.2605 334.8488  1.86229413 42443"
      },
      "geometry": {
        "type": "Point",
        "coordinates": [
          40.42101819004396,
          -36.20602809724855
        ]
      }
    },
    {
      "type": "Feature",
      "properties": {
        "norad_id": 44543,
        "name": "BEIDOU-3 M23 (C45)",
        "group": "gnss",
        "lat": 31.904042471060183,
        "lon": -17.767646766215634,
        "alt_km": 21531.442256752685,
        "timestamp": "2025-12-20T05:41:50.273678+00:00",
        "meta_object_name": "BEIDOU-3 M23 (C45)",
        "meta_object_id": "2019-061B",
        "meta_epoch": "2025-12-19T04:54:38.810304",
        "meta_mean_motion": 1.86227724,
        "meta_eccentricity": 0.0006055,
        "meta_inclination": 54.3992,
        "meta_ra_of_asc_node": 188.7663,
        "meta_arg_of_pericenter": 24.9207,
        "meta_mean_anomaly": 142.055,
        "meta_ephemeris_type": 0,
        "meta_classification_type": "U",
        "meta_norad_cat_id": 44543,
        "meta_element_set_no": 999,
        "meta_rev_at_epoch": 4244,
        "meta_bstar": 0,
        "meta_mean_motion_dot": 1.04e-06,
        "meta_mean_motion_ddot": 0,
        "tle_line1": "1 44543U 19061B   25353.20461586  .00000104  00000+0  00000+0 0  9990",
        "tle_line2": "2 44543  54.3992 188.7663 0006055  24.9207 142.0550  1.86227724 42443"
      },
      "geometry": {
        "type": "Point",
        "coordinates": [
          -17.767646766215634,
          31.904042471060183
        ]
      }
    },
    {
      "type": "Feature",
      "properties": {
        "norad_id": 44624,
        "name": "EUTELSAT 5 WEST B (EGNOS/PRN 121)",
        "group": "gnss",
        "lat": -0.017983678557888932,
        "lon": 169.49547912413612,
        "alt_km": 35788.28311552971,
        "timestamp": "2025-12-20T05:41:50.273696+00:00",
        "meta_object_name": "EUTELSAT 5 WEST B (EGNOS/PRN 121)",
        "meta_object_id": "2019-067A",
        "meta_epoch": "2025-12-19T18:22:30.046656",
        "meta_mean_motion": 1.0027128,
        "meta_eccentricity": 0.00029941,
        "meta_inclination": 0.0681,
        "meta_ra_of_asc_node": 333.6647,
        "meta_arg_of_pericenter": 295.2265,
        "meta_mean_anomaly": 90.35,
        "meta_ephemeris_type": 0,
        "meta_classification_type": "U",
        "meta_norad_cat_id": 44624,
        "meta_element_set_no": 999,
        "meta_rev_at_epoch": 2263,
        "meta_bstar": 0,
        "meta_mean_motion_dot": -1.8e-07,
        "meta_mean_motion_ddot": 0,
        "tle_line1": "1 44624U 19067A   25353.76562554 -.00000018  00000+0  00000+0 0  9999",
        "tle_line2": "2 44624   0.0681 333.6647 0002994 295.2265  90.3500  1.00271280 22635"
      },
      "geometry": {
        "type": "Point",
        "coordinates": [
          169.49547912413612,
          -0.017983678557888932
        ]
      }
    }
  ]
}